48974,ONEWEB-0256,2021,109.37,148.0,+,87.9,Active,1,LEO,Russia,UK,Commercial,Communications,Soyuz,1 48974U 21060H   24012.56577444 -.00000022  00000+0 -91505-4 0  9991,2 48974  87.9048  45.2497 0001671  99.3459 260.7861 13.16595368122962,13.16595368,0.0001671,LEO
48975,ONEWEB-0257,2021,109.37,148.0,+,87.91,Active,1,LEO,Russia,UK,Commercial,Communications,Soyuz,1 48975U 21060J   24012.59822956  .00000064  00000+0  13301-3 0  9997,2 48975  87.9050  45.2175 0001814 102.3037 257.8297 13.16592609124210,13.16592609,0.0001814,LEO
48976,ONEWEB-0258,2021,109.37,148.0,+,87.91,Active,1,LEO,Russia,UK,Commercial,Communications,Soyuz,1 48976U 21060K   24012.59981271  .00000076  00000+0  16388-3 0  9995,2 48976  87.9051  45.2464 0001868  94.7994 265.3350 13.16594946124218,13.16594946,0.0001868,LEO
48977,ONEWEB-0259,2021,109.37,148.0,+,87.91,Active,1,LEO,Russia,UK,Commercial,Communications,Soyuz,1 48977U 21060L   24012.59349016  .00000016  00000+0  81792-5 0  9998,2 48977  87.9052  45.2329 0002142  91.9611 268.1765 13.16588469122965,13.16588469,0.0002142,LEO
48978,ONEWEB-0260,2021,109.37,148.0,+,87.91,Active,1,LEO,Russia,UK,Commercial,Communications,Soyuz,1 48978U 21060M   24012.58712386  .00000018  00000+0  13298-4 0  9999,2 48978  87.9051  45.2637 0001542 119.2411 240.8874 13.16601827122942,13.16601827,0.0001542,LEO
48979,ONEWEB-0261,2021,109.37,148.0,+,87.9,Active,1,LEO,Russia,UK,Commercial,Communications,Soyuz,1 48979U 21060N   24012.62989368  .00000042  00000+0  75115-4 0  9994,2 48979  87.9047  45.2439 0002270 105.6601 254.4781 13.16594379124300,13.16594379,0.000227,LEO
48980,ONEWEB-0262,2021,109.37,148.0,+,87.91,Active,1,LEO,Russia,UK,Commercial,Communications,Soyuz,1 48980U 21060P   24012.61089426  .00000096  00000+0  21827-3 0  9990,2 48980  87.9050  45.2156 0002355  93.1831 266.9570 13.16592708124265,13.16592708,0.0002355,LEO
48981,ONEWEB-0263,2021,109.37,148.0,+,87.9,Active,1,LEO,Russia,UK,Commercial,Communications,Soyuz,1 48981U 21060Q   24012.64256526 -.00000051  00000+0 -16682-3 0  9997,2 48981  87.9048  45.2212 0002315 100.2116 259.9276 13.16593565124232,13.16593565,0.0002315,LEO
